OBJECT B                
1 51825U 22019B   25044.82962964  .00024523  00000+0  74883-3 0  9994
2 51825  97.3995 120.7639 0012467 104.8352 255.4272 15.33819379164115
